OBJECT_NAME,OBJECT_ID,EPOCH,MEAN_MOTION,ECCENTRICITY,INCLINATION,RA_OF_ASC_NODE,ARG_OF_PERICENTER,MEAN_ANOMALY,EPHEMERIS_TYPE,CLASSIFICATION_TYPE,NORAD_CAT_ID,ELEMENT_SET_NO,REV_AT_EPOCH,BSTAR,MEAN_MOTION_DOT,MEAN_MOTION_DDOT
SIRION PATHFINDER-2,2018-099B,2026-06-17T02:46:35.358528,15.14547360,.00072029,97.4249,217.1748,305.6324,54.4237,0,U,43759,999,41261,.18058626E-3,.3265E-4,0
CORVUS BC4,2018-099K,2026-06-17T01:20:38.519232,15.12495924,.00082681,97.4063,211.0401,13.6143,346.5310,0,U,43767,999,41238,.22298959E-3,.3821E-4,0
M2 PATHFINDER,2020-037E,2026-06-17T13:53:34.725696,15.04677115,.00125258,97.8146,359.8151,144.9775,215.2277,0,U,45727,999,32555,.98040093E-4,.1317E-4,0
NETSAT-4,2020-068U,2026-06-16T23:53:03.012000,15.43860202,.00038693,97.8600,176.2206,339.1494,20.9595,0,U,46504,999,31574,.32923971E-3,.14852E-3,0
NETSAT-3,2020-068V,2026-06-17T12:29:06.542304,15.42688001,.0004166,97.8649,175.0036,0.5703,359.5547,0,U,46505,999,31573,.34276784E-3,.14868E-3,0
NETSAT-1,2020-068W,2026-06-17T12:38:22.091712,15.34649788,.00049964,97.8743,169.3378,31.5449,328.6092,0,U,46506,999,31535,.28756223E-3,.9573E-4,0
NETSAT-2,2020-068X,2026-06-17T11:43:32.340000,15.46009035,.00034123,97.8608,176.6489,26.1763,333.9657,0,U,46507,999,31578,.38293481E-3,.1861E-3,0
GREENCUBE (IO-117),2022-080E,2026-06-13T07:02:28.697280,6.42583230,.00089108,70.1444,299.5995,290.4576,69.5127,0,U,53109,999,9181,0,-.3E-7,0
SITRO-AIS 5 (KATYS),2023-091L,2026-06-17T14:14:28.398336,15.29465373,.00127741,97.5057,232.4965,102.2049,258.0623,0,U,57176,999,16440,.35823449E-3,.10184E-3,0
SITRO-AIS 6 (CHIRKIN),2023-091AC,2026-06-17T13:45:30.382848,15.25941276,.0013107,97.5065,231.5934,105.3476,254.9211,0,U,57192,999,16434,.32115736E-3,.819E-4,0
SITRO-AIS 8 (ANOKHIN),2023-091AD,2026-06-17T11:29:52.549152,15.32141789,.00117858,97.5053,233.9710,99.1964,261.0611,0,U,57193,999,16449,.35783976E-3,.11052E-3,0
SITRO-AIS 7 (FARTUSHNIY),2023-091AE,2026-06-17T13:50:09.268224,15.25629427,.00129519,97.5062,231.4215,106.1893,254.0771,0,U,57194,999,16433,.32322003E-3,.8165E-4,0
SITRO-AIS 10 (BURDAEV),2023-091AK,2026-06-17T13:47:11.171040,15.38625011,.00074706,97.5079,239.1259,79.3796,280.8290,0,U,57199,999,16482,.43486202E-3,.16534E-3,0
SITRO-AIS 9 (SHCHUKIN),2023-091AM,2026-06-17T14:25:22.819584,15.38133122,.00077419,97.5077,238.8827,79.2034,281.0082,0,U,57201,999,16481,.4274959E-3,.15994E-3,0
SITRO-AIS 12 (SMIRENNIY),2023-091AQ,2026-06-17T11:04:26.151456,15.38421469,.00072842,97.5091,239.2070,74.8279,285.3771,0,U,57204,999,16481,.40819667E-3,.15409E-3,0
SITRO-AIS 11 (SHEFFER),2023-091AU,2026-06-17T14:30:55.107072,15.38850900,.00071288,97.5088,239.6009,74.2253,285.9778,0,U,57208,999,16485,.42863551E-3,.16415E-3,0
SITRO-AIS 25,2024-039R,2026-06-17T13:51:07.212384,14.93514680,.01434012,95.3906,235.3606,327.3703,31.8720,0,U,59066,999,12478,.17182084E-3,.2178E-4,0
SITRO-AIS 26,2024-039S,2026-06-17T13:53:10.413600,14.93310715,.01437577,95.3906,235.2591,327.9571,31.2972,0,U,59067,999,12477,.17280032E-3,.2181E-4,0
SITRO-AIS 27,2024-039T,2026-06-17T14:46:37.884000,14.93733041,.01427196,95.3913,235.5565,326.4697,32.7554,0,U,59068,999,12480,.15677503E-3,.1992E-4,0
SITRO-AIS 28,2024-039U,2026-06-17T14:14:08.384640,14.93765428,.01425997,95.3911,235.5882,326.3622,32.8611,0,U,59071,999,12480,.19443282E-3,.2481E-4,0
GRBBETA,2024-128C,2026-06-17T11:39:08.441568,15.06640908,.00406176,61.9882,215.2195,134.7304,225.7108,0,U,60237,999,10631,.17434717E-3,.2424E-4,0
OOV-CUBE (TUBSAT-30),2024-128F,2026-06-17T14:06:24.590304,15.02774856,.00445898,61.9933,224.1762,133.8534,226.6256,0,U,60240,999,10617,.1239575E-3,.1484E-4,0
ROBUSTA-3A (MEDITERRANEE),2024-128J,2026-06-17T14:20:56.965920,15.11679517,.00413545,61.9845,206.7918,128.0239,232.4601,0,U,60243,999,10648,.2476788E-3,.4093E-4,0
LASARSAT,2024-247Q,2026-06-16T23:25:46.453440,15.46364825,.000818,44.9742,263.4006,330.0323,30.0098,0,U,62391,999,8328,.52389176E-3,.26221E-3,0
CROCUBE,2024-247T,2026-06-14T14:05:15.116064,15.48102542,.0008187,44.9722,274.1999,320.7516,39.2780,0,U,62394,999,8294,.65094E-3,.34757E-3,0
FORESAIL-1 PRIME,2025-276DS,2026-06-16T23:55:03.229824,15.18701638,.00039518,97.4201,241.2709,103.8378,256.3296,0,U,66778,999,3037,.20319664E-3,.4149E-4,0
KNACKSAT-2,1998-067XZ,2026-06-17T14:33:42.297120,15.60014370,.00090877,51.6314,292.3670,217.1010,142.9356,0,U,67683,999,2034,.49993326E-3,.40994E-3,0
